[
    {
        "CCSDS_OMM_VERS": "3.0",
        "COMMENT": "GENERATED VIA SPACE-TRACK.ORG API",
        "CREATION_DATE": "2025-03-02T18:08:23",
        "ORIGINATOR": "18 SPCS",
        "OBJECT_NAME": "BEIDOU 12",
        "OBJECT_ID": "2012-018A",
        "CENTER_NAME": "EARTH",
        "REF_FRAME": "TEME",
        "TIME_SYSTEM": "UTC",
        "MEAN_ELEMENT_THEORY": "SGP4",
        "EPOCH": "2025-03-02T04:56:51.600192",
        "MEAN_MOTION": "1.86233531",
        "ECCENTRICITY": "0.00222560",
        "INCLINATION": "56.1491",
        "RA_OF_ASC_NODE": "320.7329",
        "ARG_OF_PERICENTER": "273.6090",
        "MEAN_ANOMALY": "86.1921",
        "EPHEMERIS_TYPE": "0",
        "CLASSIFICATION_TYPE": "U",
        "NORAD_CAT_ID": "38250",
        "ELEMENT_SET_NO": "999",
        "REV_AT_EPOCH": "8715",
        "BSTAR": "0.00000000000000",
        "MEAN_MOTION_DOT": "-0.00000058",
        "MEAN_MOTION_DDOT": "0.0000000000000",
        "SEMIMAJOR_AXIS": "27905.936",
        "PERIOD": "773.223",
        "APOAPSIS": "21589.908",
        "PERIAPSIS": "21465.693",
        "OBJECT_TYPE": "PAYLOAD",
        "RCS_SIZE": "LARGE",
        "COUNTRY_CODE": "PRC",
        "LAUNCH_DATE": "2012-04-29",
        "SITE": "XSC",
        "DECAY_DATE": null,
        "FILE": "4657142",
        "GP_ID": "282083967",
        "TLE_LINE0": "0 BEIDOU 12",
        "TLE_LINE1": "1 38250U 12018A   25061.20615278 -.00000058  00000-0  00000-0 0  9999",
        "TLE_LINE2": "2 38250  56.1491 320.7329 0022256 273.6090  86.1921  1.86233531 87156"
    }
]